{
  "type": "FeatureCollection",
  "features": [
    {
      "type": "Feature",
      "properties": {
        "norad_id": 30306,
        "name": "FENGYUN 1C DEB",
        "group": "fengyun-1c-debris",
        "lat": 53.202881045523995,
        "lon": 29.401676256039252,
        "alt_km": 800.6289642128231,
        "timestamp": "2025-12-26T04:40:06.061913+00:00",
        "meta_object_name": "FENGYUN 1C DEB",
        "meta_object_id": "1999-025ZT",
        "meta_epoch": "2025-12-25T20:00:41.400000",
        "meta_mean_motion": 14.28266969,
        "meta_eccentricity": 0.01128706,
        "meta_inclination": 98.5854,
        "meta_ra_of_asc_node": 40.6987,
        "meta_arg_of_pericenter": 318.7976,
        "meta_mean_anomaly": 40.4726,
        "meta_ephemeris_type": 0,
        "meta_classification_type": "U",
        "meta_norad_cat_id": 30306,
        "meta_element_set_no": 999,
        "meta_rev_at_epoch": 97868,
        "meta_bstar": 0.00095478537,
        "meta_mean_motion_dot": 2.505e-05,
        "meta_mean_motion_ddot": 0,
        "tle_line1": "1 30306U 99025ZT  25359.83381250  .00002505  00000+0  95479-3 0  9999",
        "tle_line2": "2 30306  98.5854  40.6987 0112870 318.7976  40.4726 14.28266969978681"
      },
      "geometry": {
        "type": "Point",
        "coordinates": [
          29.401676256039252,
          53.202881045523995
        ]
      }
    },
    {
      "type": "Feature",
      "properties": {
        "norad_id": 30309,
        "name": "FENGYUN 1C DEB",
        "group": "fengyun-1c-debris",
        "lat": 74.26987878978014,
        "lon": 22.087709044168616,
        "alt_km": 894.5867468747219,
        "timestamp": "2025-12-26T04:40:06.061923+00:00",
        "meta_object_name": "FENGYUN 1C DEB",
        "meta_object_id": "1999-025ZW",
        "meta_epoch": "2025-12-25T02:26:54.470112",
        "meta_mean_motion": 13.93529671,
        "meta_eccentricity": 0.00937983,
        "meta_inclination": 99.2244,
        "meta_ra_of_asc_node": 56.2351,
        "meta_arg_of_pericenter": 158.4311,
        "meta_mean_anomaly": 202.0841,
        "meta_ephemeris_type": 0,
        "meta_classification_type": "U",
        "meta_norad_cat_id": 30309,
        "meta_element_set_no": 999,
        "meta_rev_at_epoch": 96205,
        "meta_bstar": 0.00039003449,
        "meta_mean_motion_dot": 4.86e-06,
        "meta_mean_motion_ddot": 0,
        "tle_line1": "1 30309U 99025ZW  25359.10201933  .00000486  00000+0  39003-3 0  9998",
        "tle_line2": "2 30309  99.2244  56.2351 0093798 158.4311 202.0841 13.93529671962053"
      },
      "geometry": {
        "type": "Point",
        "coordinates": [
          22.087709044168616,
          74.26987878978014
        ]
      }
    },
    {
      "type": "Feature",
      "properties": {
        "norad_id": 30310,
        "name": "FENGYUN 1C DEB",
        "group": "fengyun-1c-debris",
        "lat": -1.0646283144830864,
        "lon": 19.47749916514565,
        "alt_km": 732.1542208355568,
        "timestamp": "2025-12-26T04:40:06.061934+00:00",
        "meta_object_name": "FENGYUN 1C DEB",
        "meta_object_id": "1999-025ZX",
        "meta_epoch": "2025-12-23T18:42:17.307936",
        "meta_mean_motion": 14.0841603,
        "meta_eccentricity": 0.02404585,
        "meta_inclination": 98.6639,
        "meta_ra_of_asc_node": 16.993,
        "meta_arg_of_pericenter": 326.1615,
        "meta_mean_anomaly": 32.4407,
        "meta_ephemeris_type": 0,
        "meta_classification_type": "U",
        "meta_norad_cat_id": 30310,
        "meta_element_set_no": 999,
        "meta_rev_at_epoch": 96887,
        "meta_bstar": 0.00058910425,
        "meta_mean_motion_dot": 1.271e-05,
        "meta_mean_motion_ddot": 0,
        "tle_line1": "1 30310U 99025ZX  25357.77936699  .00001271  00000+0  58910-3 0  9996",
        "tle_line2": "2 30310  98.6639  16.9930 0240458 326.1615  32.4407 14.08416030968870"
      },
      "geometry": {
        "type": "Point",
        "coordinates": [
          19.47749916514565,
          -1.0646283144830864
        ]
      }
    },
    {
      "type": "Feature",
      "properties": {
        "norad_id": 30311,
        "name": "FENGYUN 1C DEB",
        "group": "fengyun-1c-debris",
        "lat": 17.962509771568968,
        "lon": -81.62347352022101,
        "alt_km": 849.8185407887859,
        "timestamp": "2025-12-26T04:40:06.061944+00:00",
        "meta_object_name": "FENGYUN 1C DEB",
        "meta_object_id": "1999-025ZY",
        "meta_epoch": "2025-12-25T19:10:31.712160",
        "meta_mean_motion": 13.77900695,
        "meta_eccentricity": 0.01656617,
        "meta_inclination": 99.1388,
        "meta_ra_of_asc_node": 95.0044,
        "meta_arg_of_pericenter": 162.4912,
        "meta_mean_anomaly": 198.2046,
        "meta_ephemeris_type": 0,
        "meta_classification_type": "U",
        "meta_norad_cat_id": 30311,
        "meta_element_set_no": 999,
        "meta_rev_at_epoch": 95140,
        "meta_bstar": 0.00040785949,
        "meta_mean_motion_dot": 4.11e-06,
        "meta_mean_motion_ddot": 0,
        "tle_line1": "1 30311U 99025ZY  25359.79897815  .00000411  00000+0  40786-3 0  9994",
        "tle_line2": "2 30311  99.1388  95.0044 0165661 162.4912 198.2046 13.77900695951406"
      },
      "geometry": {
        "type": "Point",
        "coordinates": [
          -81.62347352022101,
          17.962509771568968
        ]
      }
    },
    {
      "type": "Feature",
      "properties": {
        "norad_id": 30312,
        "name": "FENGYUN 1C DEB",
        "group": "fengyun-1c-debris",
        "lat": -50.99413950608691,
        "lon": 91.18541740259441,
        "alt_km": 751.49403992302,
        "timestamp": "2025-12-26T04:40:06.061954+00:00",
        "meta_object_name": "FENGYUN 1C DEB",
        "meta_object_id": "1999-025ZZ",
        "meta_epoch": "2025-12-25T19:30:26.789184",
        "meta_mean_motion": 14.46040646,
        "meta_eccentricity": 0.00120601,
        "meta_inclination": 98.8661,
        "meta_ra_of_asc_node": 79.6752,
        "meta_arg_of_pericenter": 174.8617,
        "meta_mean_anomaly": 307.3404,
        "meta_ephemeris_type": 0,
        "meta_classification_type": "U",
        "meta_norad_cat_id": 30312,
        "meta_element_set_no": 999,
        "meta_rev_at_epoch": 98109,
        "meta_bstar": 0.00248316,
        "meta_mean_motion_dot": 8.824e-05,
        "meta_mean_motion_ddot": 0,
        "tle_line1": "1 30312U 99025ZZ  25359.81281006  .00008824  00000+0  24832-2 0  9996",
        "tle_line2": "2 30312  98.8661  79.6752 0012060 174.8617 307.3404 14.46040646981091"
      },
      "geometry": {
        "type": "Point",
        "coordinates": [
          91.18541740259441,
          -50.99413950608691
        ]
      }
    },
    {
      "type": "Feature",
      "properties": {
        "norad_id": 30313,
        "name": "FENGYUN 1C DEB",
        "group": "fengyun-1c-debris",
        "lat": 54.809508367903454,
        "lon": -80.6748543421223,
        "alt_km": 841.9506480555228,
        "timestamp": "2025-12-26T04:40:06.061964+00:00",
        "meta_object_name": "FENGYUN 1C DEB",
        "meta_object_id": "1999-025AAA",
        "meta_epoch": "2025-12-25T03:08:32.612928",
        "meta_mean_motion": 14.255473,
        "meta_eccentricity": 0.00570264,
        "meta_inclination": 98.8743,
        "meta_ra_of_asc_node": 85.4486,
        "meta_arg_of_pericenter": 299.1773,
        "meta_mean_anomaly": 129.8355,
        "meta_ephemeris_type": 0,
        "meta_classification_type": "U",
        "meta_norad_cat_id": 30313,
        "meta_element_set_no": 999,
        "meta_rev_at_epoch": 97266,
        "meta_bstar": 0.0018821913,
        "meta_mean_motion_dot": 4.485e-05,
        "meta_mean_motion_ddot": 0,
        "tle_line1": "1 30313U 99025AAA 25359.13093302  .00004485  00000+0  18822-2 0  9993",
        "tle_line2": "2 30313  98.8743  85.4486 0057026 299.1773 129.8355 14.25547300972668"
      },
      "geometry": {
        "type": "Point",
        "coordinates": [
          -80.6748543421223,
          54.809508367903454
        ]
      }
    },
    {
      "type": "Feature",
      "properties": {
        "norad_id": 30314,
        "name": "FENGYUN 1C DEB",
        "group": "fengyun-1c-debris",
        "lat": 52.41220286941821,
        "lon": 178.93375457064016,
        "alt_km": 889.4531807796411,
        "timestamp": "2025-12-26T04:40:06.061974+00:00",
        "meta_object_name": "FENGYUN 1C DEB",
        "meta_object_id": "1999-025AAB",
        "meta_epoch": "2025-12-19T07:54:02.351232",
        "meta_mean_motion": 14.0121396,
        "meta_eccentricity": 0.0143407,
        "meta_inclination": 98.3834,
        "meta_ra_of_asc_node": 183.6699,
        "meta_arg_of_pericenter": 339.1457,
        "meta_mean_anomaly": 20.3896,
        "meta_ephemeris_type": 0,
        "meta_classification_type": "U",
        "meta_norad_cat_id": 30314,
        "meta_element_set_no": 999,
        "meta_rev_at_epoch": 96201,
        "meta_bstar": 0.00090289,
        "meta_mean_motion_dot": 1.445e-05,
        "meta_mean_motion_ddot": 0,
        "tle_line1": "1 30314U 99025AAB 25353.32919388  .00001445  00000+0  90289-3 0  9991",
        "tle_line2": "2 30314  98.3834 183.6699 0143407 339.1457  20.3896 14.01213960962014"
      },
      "geometry": {
        "type": "Point",
        "coordinates": [
          178.93375457064016,
          52.41220286941821
        ]
      }
    }
  ]
}